[{"OBJECT_NAME":"TOMORROW-S2","OBJECT_ID":"2024-149T","EPOCH":"2026-03-09T18:02:42.746496","MEAN_MOTION":15.30674935,"ECCENTRICITY":0.0001648,"INCLINATION":97.3857,"RA_OF_ASC_NODE":150.0385,"ARG_OF_PERICENTER":234.3331,"MEAN_ANOMALY":125.7757,"EPHEMERIS_TYPE":0,"CLASSIFICATION_TYPE":"U","NORAD_CAT_ID":60485,"ELEMENT_SET_NO":999,"REV_AT_EPOCH":8686,"BSTAR":0.00027683033,"MEAN_MOTION_DOT":8.133e-5,"MEAN_MOTION_DDOT":0},{"OBJECT_NAME":"STARLINK-35797","OBJECT_ID":"2025-254S","EPOCH":"2026-03-09T18:16:18.375456","MEAN_MOTION":15.30198099,"ECCENTRICITY":0.00012036,"INCLINATION":53.159,"RA_OF_ASC_NODE":232.3333,"ARG_OF_PERICENTER":68.2693,"MEAN_ANOMALY":291.8436,"EPHEMERIS_TYPE":0,"CLASSIFICATION_TYPE":"U","NORAD_CAT_ID":66364,"ELEMENT_SET_NO":999,"REV_AT_EPOCH":1898,"BSTAR":0.0012161336,"MEAN_MOTION_DOT":0.00035831,"MEAN_MOTION_DDOT":0}]
